*******************************************************************************
JPL/HORIZONS           Shoemaker-Levy 9 (D/1993 F2-N)      2023-May-07 20:03:33
Rec #:90002143 (+COV)           Soln.date: -                  n.a. (span: n.a.)
 
IAU76/J2000 helio. ecliptic osc. elements (au, days, deg., period=Julian yrs):
 
  EPOCH=  2449480.5 ! 1994-May-08.0000000 (TDB)    RMSW= n.a.
   EC= .2082768876019644   QR= 5.379536292617222   TP= 2449441.1344815274
   OM= 220.8862695672824   W= 354.9999828227799    IN= 5.840457677456903
   A= 6.794719275433608    MA= 2.19059842919538    ADIST= 8.209902258249993
   PER= 17.711913396814    N= .055647646           ANGMOM= .043856816
   DAN= 5.38307            DDN= 8.201689999999999  L= 215.9120764
   B= -.5081568            MOID= 4.3730402         TP= 1994-Mar-29.6344815274
 
Comet physical (GM= km^3/s^2; RAD= km):
   GM= n.a.                RAD= n.a.
   M1=  n.a.     M2=  n.a.     k1= n.a.    k2= n.a.     PHCOF= n.a.
 
COMET comments 
1: soln ref.= JPL#N36
2: Valid 1992-Jul-15_00:00 to 1994-Jul-20_10:31 UTC ERT
*******************************************************************************

  
  
  

*******************************************************************************
Ephemeris / WWW_USER Sun May  7 20:03:33 2023 Pasadena, USA      / Horizons
*******************************************************************************
Target body name: Shoemaker-Levy 9 (D/1993 F2-N)  {source: DASTCOM}
Center body name: Jupiter (599)                   {source: jup365_merged}
Center-site name: BODY CENTER
*******************************************************************************
Start time      : A.D. 1994-Jul-10 00:00:00.0000 TDB
Stop  time      : A.D. 1994-Jul-20 10:31:00.0000 TDB
Step-size       : 15 minutes
*******************************************************************************
Center geodetic : 0.0, 0.0, 0.0                   {W-lon(deg),Lat(deg),Alt(km)}
Center cylindric: 0.0, 0.0, 0.0                   {W-lon(deg),Dxy(km),Dz(km)}
Center radii    : 71492.0, 71492.0, 66854.0 km    {Equator_a, b, pole_c}
Small perturbers: Yes                             {source: SB441-N16}
Output units    : KM-S
Calendar mode   : Mixed Julian/Gregorian
Output type     : GEOMETRIC cartesian states
Output format   : 1 (position only)
Reference frame : Ecliptic of J2000.0
*******************************************************************************
Initial IAU76/J2000 heliocentric ecliptic osculating elements (au, days, deg.):
  EPOCH=  2449480.5 ! 1994-May-08.0000000 (TDB)    RMSW= n.a.                  
   EC= .2082768876019644   QR= 5.379536292617222   TP= 2449441.1344815274      
   OM= 220.8862695672824   W= 354.9999828227799    IN= 5.840457677456903       
  Equivalent ICRF heliocentric cartesian coordinates (au, au/d):
   X=-4.163454998609240E+00  Y=-3.121854651198700E+00  Z=-1.369973053771807E+00
  VX= 5.069981381991761E-03 VY=-6.135121097034884E-03 VZ=-1.756574830154064E-03
Comet physical (GM= km^3/s^2; RAD= km):                                        
   GM= n.a.                RAD= n.a.                                           
   M1=  n.a.     M2=  n.a.     k1= n.a.    k2= n.a.     PHCOF= n.a.            
*******************************************************************************
            JDTDB,            Calendar Date (TDB),                      X,                      Y,                      Z,
**************************************************************************************************************************
$$SOE
2449546.750000000, A.D. 1994-Jul-13 06:00:00.0000, -9.641735178122520E+05,  3.507747895233716E+06, -4.592159626986343E+06,
2449546.760416667, A.D. 1994-Jul-13 06:15:00.0000, -9.631039598329067E+05,  3.504081881217017E+06, -4.588068161203020E+06,
2449546.770833333, A.D. 1994-Jul-13 06:30:00.0000, -9.620338825477362E+05,  3.500414079274993E+06, -4.583974345257069E+06,
2449546.781250000, A.D. 1994-Jul-13 06:45:00.0000, -9.609632854472399E+05,  3.496744487026227E+06, -4.579878174494877E+06,
2449546.791666667, A.D. 1994-Jul-13 07:00:00.0000, -9.598921680516005E+05,  3.493073102064497E+06, -4.575779644247368E+06,
2449546.802083333, A.D. 1994-Jul-13 07:15:00.0000, -9.588205299100876E+05,  3.489399921956657E+06, -4.571678749830543E+06,
2449546.812500000, A.D. 1994-Jul-13 07:30:00.0000, -9.577483706002235E+05,  3.485724944242781E+06, -4.567575486545156E+06,
2449546.822916667, A.D. 1994-Jul-13 07:45:00.0000, -9.566756897270679E+05,  3.482048166433729E+06, -4.563469849676629E+06,
2449546.833333333, A.D. 1994-Jul-13 08:00:00.0000, -9.556024869230986E+05,  3.478369586010953E+06, -4.559361834495199E+06,
2449546.843750000, A.D. 1994-Jul-13 08:15:00.0000, -9.545287618466616E+05,  3.474689200424777E+06, -4.555251436255693E+06,
2449546.854166667, A.D. 1994-Jul-13 08:30:00.0000, -9.534545141817331E+05,  3.471007007093713E+06, -4.551138650197455E+06,
2449546.864583333, A.D. 1994-Jul-13 08:45:00.0000, -9.523797436369658E+05,  3.467323003403318E+06, -4.547023471544434E+06,
2449546.875000000, A.D. 1994-Jul-13 09:00:00.0000, -9.513044499444962E+05,  3.463637186704779E+06, -4.542905895505003E+06,
2449546.885416667, A.D. 1994-Jul-13 09:15:00.0000, -9.502286328601837E+05,  3.459949554314568E+06, -4.538785917271858E+06,
2449546.895833333, A.D. 1994-Jul-13 09:30:00.0000, -9.491522921607494E+05,  3.456260103512910E+06, -4.534663532022249E+06,
2449546.906250000, A.D. 1994-Jul-13 09:45:00.0000, -9.480754276453257E+05,  3.452568831542933E+06, -4.530538734917398E+06,
2449546.916666667, A.D. 1994-Jul-13 10:00:00.0000, -9.469980391321182E+05,  3.448875735610127E+06, -4.526411521102997E+06,
2449546.927083333, A.D. 1994-Jul-13 10:15:00.0000, -9.459201264590025E+05,  3.445180812880936E+06, -4.522281885708712E+06,
2449546.937500000, A.D. 1994-Jul-13 10:30:00.0000, -9.448416894817352E+05,  3.441484060482215E+06, -4.518149823848221E+06,
2449546.947916667, A.D. 1994-Jul-13 10:45:00.0000, -9.437627280735970E+05,  3.437785475500356E+06, -4.514015330619311E+06,
2449546.958333333, A.D. 1994-Jul-13 11:00:00.0000, -9.426832421231270E+05,  3.434085054980396E+06, -4.509878401103659E+06,
2449546.968750000, A.D. 1994-Jul-13 11:15:00.0000, -9.416032315342426E+05,  3.430382795925438E+06, -4.505739030366682E+06,
2449546.979166667, A.D. 1994-Jul-13 11:30:00.0000, -9.405226962246895E+05,  3.426678695295786E+06, -4.501597213457444E+06,
2449546.989583333, A.D. 1994-Jul-13 11:45:00.0000, -9.394416361244917E+05,  3.422972750008494E+06, -4.497452945408925E+06,
2449547.000000000, A.D. 1994-Jul-13 12:00:00.0000, -9.383600511751175E+05,  3.419264956936568E+06, -4.493306221237477E+06,
2449547.010416667, A.D. 1994-Jul-13 12:15:00.0000, -9.372779413286448E+05,  3.415555312908486E+06, -4.489157035943037E+06,
2449547.020833333, A.D. 1994-Jul-13 12:30:00.0000, -9.361953065457344E+05,  3.411843814707561E+06, -4.485005384508785E+06,
2449547.031250000, A.D. 1994-Jul-13 12:45:00.0000, -9.351121467953920E+05,  3.408130459071528E+06, -4.480851261901358E+06,
2449547.041666667, A.D. 1994-Jul-13 13:00:00.0000, -9.340284620525837E+05,  3.404415242692111E+06, -4.476694663070498E+06,
2449547.052083333, A.D. 1994-Jul-13 13:15:00.0000, -9.329442522981167E+05,  3.400698162214468E+06, -4.472535582948973E+06,
2449547.062500000, A.D. 1994-Jul-13 13:30:00.0000, -9.318595175164938E+05,  3.396979214237193E+06, -4.468374016452744E+06,
2449547.072916667, A.D. 1994-Jul-13 13:45:00.0000, -9.307742576954365E+05,  3.393258395311482E+06, -4.464209958480466E+06,
2449547.083333333, A.D. 1994-Jul-13 14:00:00.0000, -9.296884728233814E+05,  3.389535701941574E+06, -4.460043403913688E+06,
2449547.093750000, A.D. 1994-Jul-13 14:15:00.0000, -9.286021628895998E+05,  3.385811130583440E+06, -4.455874347616572E+06,
2449547.104166667, A.D. 1994-Jul-13 14:30:00.0000, -9.275153278822899E+05,  3.382084677645868E+06, -4.451702784435941E+06,
2449547.114583333, A.D. 1994-Jul-13 14:45:00.0000, -9.264279677870274E+05,  3.378356339489278E+06, -4.447528709200863E+06,
2449547.125000000, A.D. 1994-Jul-13 15:00:00.0000, -9.253400825854540E+05,  3.374626112426543E+06, -4.443352116723010E+06,
2449547.135416667, A.D. 1994-Jul-13 15:15:00.0000, -9.242516722544432E+05,  3.370893992722183E+06, -4.439173001796111E+06,
2449547.145833333, A.D. 1994-Jul-13 15:30:00.0000, -9.231627367649078E+05,  3.367159976592654E+06, -4.434991359196042E+06,
2449547.156250000, A.D. 1994-Jul-13 15:45:00.0000, -9.220732760794163E+05,  3.363424060206540E+06, -4.430807183680526E+06,
2449547.166666667, A.D. 1994-Jul-13 16:00:00.0000, -9.209832901521921E+05,  3.359686239684604E+06, -4.426620469989476E+06,
2449547.177083333, A.D. 1994-Jul-13 16:15:00.0000, -9.198927789268494E+05,  3.355946511099359E+06, -4.422431212844028E+06,
2449547.187500000, A.D. 1994-Jul-13 16:30:00.0000, -9.188017423359156E+05,  3.352204870476459E+06, -4.418239406947376E+06,
2449547.197916667, A.D. 1994-Jul-13 16:45:00.0000, -9.177101802990437E+05,  3.348461313793729E+06, -4.414045046984022E+06,
2449547.208333333, A.D. 1994-Jul-13 17:00:00.0000, -9.166180927212238E+05,  3.344715836981918E+06, -4.409848127619681E+06,
2449547.218750000, A.D. 1994-Jul-13 17:15:00.0000, -9.155254794931412E+05,  3.340968435925059E+06, -4.405648643501346E+06,
2449547.229166667, A.D. 1994-Jul-13 17:30:00.0000, -9.144323404883146E+05,  3.337219106460999E+06, -4.401446589257279E+06,
2449547.239583333, A.D. 1994-Jul-13 17:45:00.0000, -9.133386755622625E+05,  3.333467844381054E+06, -4.397241959496288E+06,
2449547.250000000, A.D. 1994-Jul-13 18:00:00.0000, -9.122444845523834E+05,  3.329714645431244E+06, -4.393034748808189E+06,
2449547.260416667, A.D. 1994-Jul-13 18:15:00.0000, -9.111497672755718E+05,  3.325959505312483E+06, -4.388824951763374E+06,
2449547.270833333, A.D. 1994-Jul-13 18:30:00.0000, -9.100545235265493E+05,  3.322202419681122E+06, -4.384612562912880E+06,
2449547.281250000, A.D. 1994-Jul-13 18:45:00.0000, -9.089587530788183E+05,  3.318443384149171E+06, -4.380397576787906E+06,
